KUIPER-00035            
1 63748U 25088AA  25206.25002315 -.01225412  00000+0 -78155-1 0  9999
2 63748  51.8821  42.1453 0003605  87.8363  14.7332 15.11453569 13793
KUIPER-00037            
1 63749U 25088AB  25206.25002315 -.00031885  00000+0 -18584-2 0  9999
2 63749  51.8845  41.5476 0003864   2.0473 329.2109 15.11352109 14588
KUIPER-00038            
1 63750U 25088AC  25205.84012978  .00016315  00000+0  44336-3 0  9995
2 63750  51.8710  38.1623 0004796  63.0747 297.0729 15.37693197 13608
KUIPER-00039            
1 64500U 25134A   25205.64382169  .00020930  00000+0  61713-3 0  9997
2 64500  51.8671 180.7459 0007187 225.5701 134.4697 15.34947348  6035
KUIPER-00040            
1 64501U 25134B   25206.16668981 -.00821196  00000+0 -32151-1 0  9992
2 64501  51.8689 178.6841 0011445 242.9088 275.3898 15.27802780  5645
KUIPER-00041            
1 64502U 25134C   25206.16668981 -.00694754  00000+0 -32980-1 0  9991
2 64502  51.8726 178.8004 0008418 228.8263 192.5144 15.21034472  5648
KUIPER-00042            
1 64503U 25134D   25206.16668981  .00008079  00000+0  26260-3 0  9995
2 64503  51.8661 178.3049 0008182 233.0043  97.1400 15.32775733  5653
KUIPER-00043            
1 64504U 25134E   25206.16638255  .00023207  00000+0  68563-3 0  9999
2 64504  51.8693 178.2514 0008326 220.1242 139.9129 15.34812418  6033
